[{"OBJECT_NAME":"STARLINK-30962","OBJECT_ID":"2023-183X","EPOCH":"2025-07-31T03:21:03.841056","MEAN_MOTION":15.02533701,"ECCENTRICITY":0.0001111,"INCLINATION":43.0023,"RA_OF_ASC_NODE":166.6282,"ARG_OF_PERICENTER":267.7196,"MEAN_ANOMALY":92.352,"EPHEMERIS_TYPE":0,"CLASSIFICATION_TYPE":"U","NORAD_CAT_ID":58458,"ELEMENT_SET_NO":999,"REV_AT_EPOCH":9320,"BSTAR":2.2195e-6,"MEAN_MOTION_DOT":-1.74e-6,"MEAN_MOTION_DDOT":0},{"OBJECT_NAME":"STARLINK-30977","OBJECT_ID":"2023-183Y","EPOCH":"2025-07-30T13:52:15.323232","MEAN_MOTION":15.02534758,"ECCENTRICITY":7.95e-5,"INCLINATION":43.002,"RA_OF_ASC_NODE":170.1467,"ARG_OF_PERICENTER":268.7241,"MEAN_ANOMALY":91.351,"EPHEMERIS_TYPE":0,"CLASSIFICATION_TYPE":"U","NORAD_CAT_ID":58459,"ELEMENT_SET_NO":999,"REV_AT_EPOCH":9330,"BSTAR":2.6881e-5,"MEAN_MOTION_DOT":1.6e-6,"MEAN_MOTION_DDOT":0},{"OBJECT_NAME":"STARLINK-30947","OBJECT_ID":"2023-186A","EPOCH":"2025-07-31T10:09:58.540608","MEAN_MOTION":15.02535559,"ECCENTRICITY":0.0001234,"INCLINATION":43.0027,"RA_OF_ASC_NODE":190.0699,"ARG_OF_PERICENTER":291.0992,"MEAN_ANOMALY":68.9718,"EPHEMERIS_TYPE":0,"CLASSIFICATION_TYPE":"U","NORAD_CAT_ID":58473,"ELEMENT_SET_NO":999,"REV_AT_EPOCH":9251,"BSTAR":2.898e-5,"MEAN_MOTION_DOT":1.88e-6,"MEAN_MOTION_DDOT":0},{"OBJECT_NAME":"STARLINK-30995","OBJECT_ID":"2023-186B","EPOCH":"2025-07-30T07:44:17.726496","MEAN_MOTION":15.27586857,"ECCENTRICITY":8.84e-5,"INCLINATION":43.003,"RA_OF_ASC_NODE":65.1241,"ARG_OF_PERICENTER":283.1826,"MEAN_ANOMALY":76.8927,"EPHEMERIS_TYPE":0,"CLASSIFICATION_TYPE":"U","NORAD_CAT_ID":58474,"ELEMENT_SET_NO":999,"REV_AT_EPOCH":9406,"BSTAR":-0.00011455,"MEAN_MOTION_DOT":-3.413e-5,"MEAN_MOTION_DDOT":0},{"OBJECT_NAME":"STARLINK-30941","OBJECT_ID":"2023-186C","EPOCH":"2025-07-30T22:50:17.604096","MEAN_MOTION":15.02522729,"ECCENTRICITY":0.0001185,"INCLINATION":43.0024,"RA_OF_ASC_NODE":192.5478,"ARG_OF_PERICENTER":283.6478,"MEAN_ANOMALY":76.4232,"EPHEMERIS_TYPE":0,"CLASSIFICATION_TYPE":"U","NORAD_CAT_ID":58475,"ELEMENT_SET_NO":999,"REV_AT_EPOCH":9249,"BSTAR":8.9502e-5,"MEAN_MOTION_DOT":1.005e-5,"MEAN_MOTION_DDOT":0},{"OBJECT_NAME":"STARLINK-30980","OBJECT_ID":"2023-186D","EPOCH":"2025-07-30T22:45:29.454912","MEAN_MOTION":15.02538186,"ECCENTRICITY":0.0001329,"INCLINATION":43.0017,"RA_OF_ASC_NODE":192.5227,"ARG_OF_PERICENTER":289.8641,"MEAN_ANOMALY":70.2058,"EPHEMERIS_TYPE":0,"CLASSIFICATION_TYPE":"U","NORAD_CAT_ID":58476,"ELEMENT_SET_NO":999,"REV_AT_EPOCH":9249,"BSTAR":5.5874e-5,"MEAN_MOTION_DOT":5.51e-6,"MEAN_MOTION_DDOT":0},{"OBJECT_NAME":"STARLINK-30965","OBJECT_ID":"2023-186E","EPOCH":"2025-07-30T22:25:05.265408","MEAN_MOTION":15.02536323,"ECCENTRICITY":0.000114,"INCLINATION":43.0029,"RA_OF_ASC_NODE":179.4056,"ARG_OF_PERICENTER":274.9498,"MEAN_ANOMALY":85.1214,"EPHEMERIS_TYPE":0,"CLASSIFICATION_TYPE":"U","NORAD_CAT_ID":58477,"ELEMENT_SET_NO":999,"REV_AT_EPOCH":9264,"BSTAR":2.387e-5,"MEAN_MOTION_DOT":1.19e-6,"MEAN_MOTION_DDOT":0},{"OBJECT_NAME":"STARLINK-30990","OBJECT_ID":"2023-186F","EPOCH":"2025-07-30T22:40:41.886336","MEAN_MOTION":15.02537734,"ECCENTRICITY":0.0001363,"INCLINATION":43.0022,"RA_OF_ASC_NODE":192.4973,"ARG_OF_PERICENTER":279.9746,"MEAN_ANOMALY":80.0943,"EPHEMERIS_TYPE":0,"CLASSIFICATION_TYPE":"U","NORAD_CAT_ID":58478,"ELEMENT_SET_NO":999,"REV_AT_EPOCH":9253,"BSTAR":6.2347e-5,"MEAN_MOTION_DOT":6.39e-6,"MEAN_MOTION_DDOT":0},{"OBJECT_NAME":"STARLINK-30984","OBJECT_ID":"2023-186H","EPOCH":"2025-07-31T07:07:56.446176","MEAN_MOTION":15.0254047,"ECCENTRICITY":0.0001004,"INCLINATION":43.0027,"RA_OF_ASC_NODE":189.9747,"ARG_OF_PERICENTER":276.4722,"MEAN_ANOMALY":83.6006,"EPHEMERIS_TYPE":0,"CLASSIFICATION_TYPE":"U","NORAD_CAT_ID":58480,"ELEMENT_SET_NO":999,"REV_AT_EPOCH":9251,"BSTAR":-1.1446e-5,"MEAN_MOTION_DOT":-3.58e-6,"MEAN_MOTION_DDOT":0},{"OBJECT_NAME":"STARLINK-30956","OBJECT_ID":"2023-186J","EPOCH":"2025-07-30T13:58:32.588832","MEAN_MOTION":15.02534541,"ECCENTRICITY":0.0001045,"INCLINATION":43.0046,"RA_OF_ASC_NODE":169.6533,"ARG_OF_PERICENTER":275.4544,"MEAN_ANOMALY":84.6179,"EPHEMERIS_TYPE":0,"CLASSIFICATION_TYPE":"U","NORAD_CAT_ID":58481,"ELEMENT_SET_NO":999,"REV_AT_EPOCH":9272,"BSTAR":1.8647e-5,"MEAN_MOTION_DOT":4.8e-7,"MEAN_MOTION_DDOT":0},{"OBJECT_NAME":"STARLINK-30997","OBJECT_ID":"2023-186K","EPOCH":"2025-07-31T05:56:11.173056","MEAN_MOTION":15.02549308,"ECCENTRICITY":0.0001199,"INCLINATION":43.0017,"RA_OF_ASC_NODE":190.4352,"ARG_OF_PERICENTER":285.887,"MEAN_ANOMALY":74.184,"EPHEMERIS_TYPE":0,"CLASSIFICATION_TYPE":"U","NORAD_CAT_ID":58482,"ELEMENT_SET_NO":999,"REV_AT_EPOCH":9249,"BSTAR":6.9352e-5,"MEAN_MOTION_DOT":7.34e-6,"MEAN_MOTION_DDOT":0},{"OBJECT_NAME":"STARLINK-30994","OBJECT_ID":"2023-186L","EPOCH":"2025-07-30T21:27:54.955584","MEAN_MOTION":15.25908104,"ECCENTRICITY":0.0001276,"INCLINATION":43.0042,"RA_OF_ASC_NODE":72.7389,"ARG_OF_PERICENTER":285.0481,"MEAN_ANOMALY":75.0229,"EPHEMERIS_TYPE":0,"CLASSIFICATION_TYPE":"U","NORAD_CAT_ID":58483,"ELEMENT_SET_NO":999,"REV_AT_EPOCH":9379,"BSTAR":5.8083e-6,"MEAN_MOTION_DOT":-1.06e-6,"MEAN_MOTION_DDOT":0},{"OBJECT_NAME":"STARLINK-30991","OBJECT_ID":"2023-186M","EPOCH":"2025-07-31T07:03:08.604576","MEAN_MOTION":15.02512994,"ECCENTRICITY":0.000201,"INCLINATION":43.0017,"RA_OF_ASC_NODE":189.9472,"ARG_OF_PERICENTER":262.889,"MEAN_ANOMALY":97.1724,"EPHEMERIS_TYPE":0,"CLASSIFICATION_TYPE":"U","NORAD_CAT_ID":58484,"ELEMENT_SET_NO":999,"REV_AT_EPOCH":9250,"BSTAR":0.00020766,"MEAN_MOTION_DOT":2.601e-5,"MEAN_MOTION_DDOT":0},{"OBJECT_NAME":"STARLINK-30979","OBJECT_ID":"2023-186N","EPOCH":"2025-07-31T04:54:01.286784","MEAN_MOTION":15.02536677,"ECCENTRICITY":0.0001064,"INCLINATION":43.0019,"RA_OF_ASC_NODE":191.0008,"ARG_OF_PERICENTER":293.4797,"MEAN_ANOMALY":66.5933,"EPHEMERIS_TYPE":0,"CLASSIFICATION_TYPE":"U","NORAD_CAT_ID":58485,"ELEMENT_SET_NO":999,"REV_AT_EPOCH":9248,"BSTAR":6.5549e-5,"MEAN_MOTION_DOT":6.82e-6,"MEAN_MOTION_DDOT":0},{"OBJECT_NAME":"STARLINK-31005","OBJECT_ID":"2023-186P","EPOCH":"2025-07-30T22:26:18.717504","MEAN_MOTION":15.02536223,"ECCENTRICITY":0.0001261,"INCLINATION":43.0019,"RA_OF_ASC_NODE":192.4217,"ARG_OF_PERICENTER":286.4652,"MEAN_ANOMALY":73.6051,"EPHEMERIS_TYPE":0,"CLASSIFICATION_TYPE":"U","NORAD_CAT_ID":58486,"ELEMENT_SET_NO":999,"REV_AT_EPOCH":9248,"BSTAR":9.9134e-5,"MEAN_MOTION_DOT":1.136e-5,"MEAN_MOTION_DDOT":0},{"OBJECT_NAME":"STARLINK-30987","OBJECT_ID":"2023-186Q","EPOCH":"2025-07-30T22:21:31.205088","MEAN_MOTION":15.02536083,"ECCENTRICITY":0.0001128,"INCLINATION":43.0015,"RA_OF_ASC_NODE":192.3955,"ARG_OF_PERICENTER":294.2654,"MEAN_ANOMALY":65.807,"EPHEMERIS_TYPE":0,"CLASSIFICATION_TYPE":"U","NORAD_CAT_ID":58487,"ELEMENT_SET_NO":999,"REV_AT_EPOCH":9248,"BSTAR":3.2865e-5,"MEAN_MOTION_DOT":2.4e-6,"MEAN_MOTION_DDOT":0},{"OBJECT_NAME":"STARLINK-31000","OBJECT_ID":"2023-186R","EPOCH":"2025-07-30T23:52:27.347808","MEAN_MOTION":15.02532097,"ECCENTRICITY":0.0001109,"INCLINATION":43.0009,"RA_OF_ASC_NODE":192.009,"ARG_OF_PERICENTER":280.0433,"MEAN_ANOMALY":80.0285,"EPHEMERIS_TYPE":0,"CLASSIFICATION_TYPE":"U","NORAD_CAT_ID":58488,"ELEMENT_SET_NO":999,"REV_AT_EPOCH":9241,"BSTAR":1.3897e-5,"MEAN_MOTION_DOT":-1.6e-7,"MEAN_MOTION_DDOT":0}]
