STARLINK-30962          
1 58458U 23183X   25212.13962779 -.00000174  00000+0  22195-5 0  9999
2 58458  43.0023 166.6282 0001111 267.7196  92.3520 15.02533701 93209
STARLINK-30977          
1 58459U 23183Y   25211.57795513  .00000160  00000+0  26881-4 0  9996
2 58459  43.0020 170.1467 0000795 268.7241  91.3510 15.02534758 93303
STARLINK-30947          
1 58473U 23186A   25212.42359422  .00000188  00000+0  28980-4 0  9997
2 58473  43.0027 190.0699 0001234 291.0992  68.9718 15.02535559 92517
STARLINK-30995          
1 58474U 23186B   25211.32242739 -.00003413  00000+0 -11455-3 0  9992
2 58474  43.0030  65.1241 0000884 283.1826  76.8927 15.27586857 94061
STARLINK-30941          
1 58475U 23186C   25211.95159264  .00001005  00000+0  89502-4 0  9994
2 58475  43.0024 192.5478 0001185 283.6478  76.4232 15.02522729 92496
STARLINK-30980          
1 58476U 23186D   25211.94825758  .00000551  00000+0  55874-4 0  9992
2 58476  43.0017 192.5227 0001329 289.8641  70.2058 15.02538186 92493
STARLINK-30965          
1 58477U 23186E   25211.93408872  .00000119  00000+0  23870-4 0  9997
2 58477  43.0029 179.4056 0001140 274.9498  85.1214 15.02536323 92644
STARLINK-30990          
1 58478U 23186F   25211.94492924  .00000639  00000+0  62347-4 0  9999
2 58478  43.0022 192.4973 0001363 279.9746  80.0943 15.02537734 92537
STARLINK-30984          
1 58480U 23186H   25212.29718109 -.00000358  00000+0 -11446-4 0  9991
2 58480  43.0027 189.9747 0001004 276.4722  83.6006 15.02540470 92511
STARLINK-30956          
1 58481U 23186J   25211.58232163  .00000048  00000+0  18647-4 0  9998
2 58481  43.0046 169.6533 0001045 275.4544  84.6179 15.02534541 92724
STARLINK-30997          
1 58482U 23186K   25212.24735154  .00000734  00000+0  69352-4 0  9992
2 58482  43.0017 190.4352 0001199 285.8870  74.1840 15.02549308 92491
STARLINK-30994          
1 58483U 23186L   25211.89438606 -.00000106  00000+0  58083-5 0  9999
2 58483  43.0042  72.7389 0001276 285.0481  75.0229 15.25908104 93791
STARLINK-30991          
1 58484U 23186M   25212.29384959  .00002601  00000+0  20766-3 0  9992
2 58484  43.0017 189.9472 0002010 262.8890  97.1724 15.02512994 92508
STARLINK-30979          
1 58485U 23186N   25212.20418156  .00000682  00000+0  65549-4 0  9997
2 58485  43.0019 191.0008 0001064 293.4797  66.5933 15.02536677 92487
STARLINK-31005          
1 58486U 23186P   25211.93493886  .00001136  00000+0  99134-4 0  9992
2 58486  43.0019 192.4217 0001261 286.4652  73.6051 15.02536223 92483
STARLINK-30987          
1 58487U 23186Q   25211.93161117  .00000240  00000+0  32865-4 0  9995
2 58487  43.0015 192.3955 0001128 294.2654  65.8070 15.02536083 92487
STARLINK-31000          
1 58488U 23186R   25211.99476097 -.00000016  00000+0  13897-4 0  9994
2 58488  43.0009 192.0090 0001109 280.0433  80.0285 15.02532097 92416
